[{"OBJECT_NAME":"ICEYE-X7","OBJECT_ID":"2020-068L","EPOCH":"2026-03-09T22:52:28.702272","MEAN_MOTION":15.29152508,"ECCENTRICITY":0.00068409,"INCLINATION":97.7412,"RA_OF_ASC_NODE":31.2076,"ARG_OF_PERICENTER":332.3045,"MEAN_ANOMALY":27.7829,"EPHEMERIS_TYPE":0,"CLASSIFICATION_TYPE":"U","NORAD_CAT_ID":46496,"ELEMENT_SET_NO":999,"REV_AT_EPOCH":29961,"BSTAR":0.0005654802,"MEAN_MOTION_DOT":0.00015947,"MEAN_MOTION_DDOT":0},{"OBJECT_NAME":"STARLINK-32379","OBJECT_ID":"2024-202G","EPOCH":"2026-03-09T11:01:33.659904","MEAN_MOTION":15.27570727,"ECCENTRICITY":6.866e-5,"INCLINATION":42.9987,"RA_OF_ASC_NODE":227.9359,"ARG_OF_PERICENTER":260.6359,"MEAN_ANOMALY":99.4415,"EPHEMERIS_TYPE":0,"CLASSIFICATION_TYPE":"U","NORAD_CAT_ID":61851,"ELEMENT_SET_NO":999,"REV_AT_EPOCH":7542,"BSTAR":-1.639796e-5,"MEAN_MOTION_DOT":-7.13e-6,"MEAN_MOTION_DDOT":0}]
